[{"OBJECT_NAME":"ONEWEB-0058","OBJECT_ID":"2020-008AG","EPOCH":"2026-02-25T22:59:13.144992","MEAN_MOTION":13.10374137,"ECCENTRICITY":0.00019111,"INCLINATION":87.8758,"RA_OF_ASC_NODE":58.4335,"ARG_OF_PERICENTER":96.5916,"MEAN_ANOMALY":263.5429,"EPHEMERIS_TYPE":0,"CLASSIFICATION_TYPE":"U","NORAD_CAT_ID":45161,"ELEMENT_SET_NO":999,"REV_AT_EPOCH":29385,"BSTAR":-0.0014121236,"MEAN_MOTION_DOT":-4.8e-6,"MEAN_MOTION_DDOT":0},{"OBJECT_NAME":"ONEWEB-0059","OBJECT_ID":"2020-008AH","EPOCH":"2026-02-26T06:14:03.062688","MEAN_MOTION":13.10373794,"ECCENTRICITY":0.00017657,"INCLINATION":87.8758,"RA_OF_ASC_NODE":58.3735,"ARG_OF_PERICENTER":91.9803,"MEAN_ANOMALY":268.1527,"EPHEMERIS_TYPE":0,"CLASSIFICATION_TYPE":"U","NORAD_CAT_ID":45162,"ELEMENT_SET_NO":999,"REV_AT_EPOCH":29379,"BSTAR":-0.0017024054,"MEAN_MOTION_DOT":-5.82e-6,"MEAN_MOTION_DDOT":0},{"OBJECT_NAME":"ONEWEB-0062","OBJECT_ID":"2020-008AJ","EPOCH":"2026-02-26T01:21:16.317504","MEAN_MOTION":13.10374329,"ECCENTRICITY":0.00020498,"INCLINATION":87.8766,"RA_OF_ASC_NODE":58.3953,"ARG_OF_PERICENTER":100.7563,"MEAN_ANOMALY":259.3795,"EPHEMERIS_TYPE":0,"CLASSIFICATION_TYPE":"U","NORAD_CAT_ID":45163,"ELEMENT_SET_NO":999,"REV_AT_EPOCH":29363,"BSTAR":0.0012274224,"MEAN_MOTION_DOT":4.41e-6,"MEAN_MOTION_DDOT":0},{"OBJECT_NAME":"ONEWEB-0065","OBJECT_ID":"2020-008AK","EPOCH":"2026-02-26T00:15:19.315008","MEAN_MOTION":13.10369932,"ECCENTRICITY":0.0001891,"INCLINATION":87.875,"RA_OF_ASC_NODE":58.4145,"ARG_OF_PERICENTER":77.9031,"MEAN_ANOMALY":282.2308,"EPHEMERIS_TYPE":0,"CLASSIFICATION_TYPE":"U","NORAD_CAT_ID":45164,"ELEMENT_SET_NO":999,"REV_AT_EPOCH":29332,"BSTAR":-0.00042695,"MEAN_MOTION_DOT":-1.36e-6,"MEAN_MOTION_DDOT":0},{"OBJECT_NAME":"ONEWEB-0066","OBJECT_ID":"2020-020A","EPOCH":"2026-02-25T21:44:38.253120","MEAN_MOTION":13.11415516,"ECCENTRICITY":0.00017057,"INCLINATION":87.8845,"RA_OF_ASC_NODE":43.1965,"ARG_OF_PERICENTER":87.9964,"MEAN_ANOMALY":272.136,"EPHEMERIS_TYPE":0,"CLASSIFICATION_TYPE":"U","NORAD_CAT_ID":45424,"ELEMENT_SET_NO":999,"REV_AT_EPOCH":28809,"BSTAR":-0.0013442914,"MEAN_MOTION_DOT":-4.64e-6,"MEAN_MOTION_DDOT":0},{"OBJECT_NAME":"ONEWEB-0067","OBJECT_ID":"2020-020B","EPOCH":"2026-02-25T22:38:34.607904","MEAN_MOTION":13.11416327,"ECCENTRICITY":0.00017417,"INCLINATION":87.8855,"RA_OF_ASC_NODE":43.0973,"ARG_OF_PERICENTER":81.1124,"MEAN_ANOMALY":279.0201,"EPHEMERIS_TYPE":0,"CLASSIFICATION_TYPE":"U","NORAD_CAT_ID":45425,"ELEMENT_SET_NO":999,"REV_AT_EPOCH":28815,"BSTAR":0.0015105616,"MEAN_MOTION_DOT":5.48e-6,"MEAN_MOTION_DDOT":0},{"OBJECT_NAME":"ONEWEB-0080","OBJECT_ID":"2020-020C","EPOCH":"2026-02-26T04:21:23.532768","MEAN_MOTION":13.11418341,"ECCENTRICITY":0.00019698,"INCLINATION":87.8842,"RA_OF_ASC_NODE":43.1395,"ARG_OF_PERICENTER":95.1968,"MEAN_ANOMALY":264.9384,"EPHEMERIS_TYPE":0,"CLASSIFICATION_TYPE":"U","NORAD_CAT_ID":45426,"ELEMENT_SET_NO":999,"REV_AT_EPOCH":28815,"BSTAR":0.0014069245,"MEAN_MOTION_DOT":5.11e-6,"MEAN_MOTION_DDOT":0},{"OBJECT_NAME":"ONEWEB-0090","OBJECT_ID":"2020-020D","EPOCH":"2026-02-25T12:20:50.906976","MEAN_MOTION":13.11414112,"ECCENTRICITY":0.0001865,"INCLINATION":87.8841,"RA_OF_ASC_NODE":43.2734,"ARG_OF_PERICENTER":88.4348,"MEAN_ANOMALY":271.6994,"EPHEMERIS_TYPE":0,"CLASSIFICATION_TYPE":"U","NORAD_CAT_ID":45427,"ELEMENT_SET_NO":999,"REV_AT_EPOCH":28803,"BSTAR":-0.00090713,"MEAN_MOTION_DOT":-3.09e-6,"MEAN_MOTION_DDOT":0},{"OBJECT_NAME":"ONEWEB-0061","OBJECT_ID":"2020-020E","EPOCH":"2026-02-25T22:16:12.367488","MEAN_MOTION":13.11418786,"ECCENTRICITY":0.00018231,"INCLINATION":87.885,"RA_OF_ASC_NODE":43.1765,"ARG_OF_PERICENTER":86.8295,"MEAN_ANOMALY":273.3041,"EPHEMERIS_TYPE":0,"CLASSIFICATION_TYPE":"U","NORAD_CAT_ID":45428,"ELEMENT_SET_NO":999,"REV_AT_EPOCH":28804,"BSTAR":0.00019036404,"MEAN_MOTION_DOT":8.0e-7,"MEAN_MOTION_DDOT":0},{"OBJECT_NAME":"ONEWEB-0081","OBJECT_ID":"2020-020F","EPOCH":"2026-02-25T21:49:30.340416","MEAN_MOTION":13.11415274,"ECCENTRICITY":0.00016406,"INCLINATION":87.8847,"RA_OF_ASC_NODE":43.1957,"ARG_OF_PERICENTER":83.3679,"MEAN_ANOMALY":276.7636,"EPHEMERIS_TYPE":0,"CLASSIFICATION_TYPE":"U","NORAD_CAT_ID":45429,"ELEMENT_SET_NO":999,"REV_AT_EPOCH":28815,"BSTAR":-0.0015371387,"MEAN_MOTION_DOT":-5.32e-6,"MEAN_MOTION_DDOT":0},{"OBJECT_NAME":"ONEWEB-0069","OBJECT_ID":"2020-020G","EPOCH":"2026-02-25T23:23:31.907904","MEAN_MOTION":13.11414837,"ECCENTRICITY":0.00017548,"INCLINATION":87.8846,"RA_OF_ASC_NODE":43.1777,"ARG_OF_PERICENTER":84.6139,"MEAN_ANOMALY":275.5189,"EPHEMERIS_TYPE":0,"CLASSIFICATION_TYPE":"U","NORAD_CAT_ID":45430,"ELEMENT_SET_NO":999,"REV_AT_EPOCH":28809,"BSTAR":-0.0010652733,"MEAN_MOTION_DOT":-3.65e-6,"MEAN_MOTION_DDOT":0},{"OBJECT_NAME":"ONEWEB-0031","OBJECT_ID":"2020-020H","EPOCH":"2026-02-25T22:43:15.514176","MEAN_MOTION":13.11416545,"ECCENTRICITY":0.00020456,"INCLINATION":87.8839,"RA_OF_ASC_NODE":43.2022,"ARG_OF_PERICENTER":88.0863,"MEAN_ANOMALY":272.0499,"EPHEMERIS_TYPE":0,"CLASSIFICATION_TYPE":"U","NORAD_CAT_ID":45431,"ELEMENT_SET_NO":999,"REV_AT_EPOCH":28807,"BSTAR":0.0015121618,"MEAN_MOTION_DOT":5.49e-6,"MEAN_MOTION_DDOT":0},{"OBJECT_NAME":"ONEWEB-0027","OBJECT_ID":"2020-020J","EPOCH":"2026-02-26T06:53:33.287712","MEAN_MOTION":13.17645978,"ECCENTRICITY":0.00022532,"INCLINATION":87.9139,"RA_OF_ASC_NODE":27.8654,"ARG_OF_PERICENTER":86.5856,"MEAN_ANOMALY":273.5533,"EPHEMERIS_TYPE":0,"CLASSIFICATION_TYPE":"U","NORAD_CAT_ID":45432,"ELEMENT_SET_NO":999,"REV_AT_EPOCH":29175,"BSTAR":-2.3854523e-5,"MEAN_MOTION_DOT":4.0e-8,"MEAN_MOTION_DDOT":0},{"OBJECT_NAME":"ONEWEB-0064","OBJECT_ID":"2020-020K","EPOCH":"2026-02-26T06:00:17.088192","MEAN_MOTION":13.11416094,"ECCENTRICITY":0.00019996,"INCLINATION":87.8839,"RA_OF_ASC_NODE":43.1318,"ARG_OF_PERICENTER":87.6823,"MEAN_ANOMALY":272.4534,"EPHEMERIS_TYPE":0,"CLASSIFICATION_TYPE":"U","NORAD_CAT_ID":45433,"ELEMENT_SET_NO":999,"REV_AT_EPOCH":28814,"BSTAR":0.0016075404,"MEAN_MOTION_DOT":5.82e-6,"MEAN_MOTION_DDOT":0},{"OBJECT_NAME":"ONEWEB-0018","OBJECT_ID":"2020-020L","EPOCH":"2026-02-25T16:07:43.015296","MEAN_MOTION":13.11415366,"ECCENTRICITY":0.0001723,"INCLINATION":87.8845,"RA_OF_ASC_NODE":43.243,"ARG_OF_PERICENTER":89.896,"MEAN_ANOMALY":270.2365,"EPHEMERIS_TYPE":0,"CLASSIFICATION_TYPE":"U","NORAD_CAT_ID":45434,"ELEMENT_SET_NO":999,"REV_AT_EPOCH":28801,"BSTAR":-0.0011495,"MEAN_MOTION_DOT":-3.95e-6,"MEAN_MOTION_DDOT":0},{"OBJECT_NAME":"ONEWEB-0083","OBJECT_ID":"2020-020M","EPOCH":"2026-02-25T23:13:45.670944","MEAN_MOTION":13.11413044,"ECCENTRICITY":0.00018562,"INCLINATION":87.8843,"RA_OF_ASC_NODE":43.1717,"ARG_OF_PERICENTER":88.2818,"MEAN_ANOMALY":271.8522,"EPHEMERIS_TYPE":0,"CLASSIFICATION_TYPE":"U","NORAD_CAT_ID":45435,"ELEMENT_SET_NO":999,"REV_AT_EPOCH":28809,"BSTAR":-0.00037524735,"MEAN_MOTION_DOT":-1.2e-6,"MEAN_MOTION_DDOT":0},{"OBJECT_NAME":"ONEWEB-0095","OBJECT_ID":"2020-020N","EPOCH":"2026-02-25T23:00:32.728896","MEAN_MOTION":13.11415274,"ECCENTRICITY":0.00024857,"INCLINATION":87.8843,"RA_OF_ASC_NODE":43.1824,"ARG_OF_PERICENTER":73.1929,"MEAN_ANOMALY":286.9472,"EPHEMERIS_TYPE":0,"CLASSIFICATION_TYPE":"U","NORAD_CAT_ID":45436,"ELEMENT_SET_NO":999,"REV_AT_EPOCH":28809,"BSTAR":0.00073923134,"MEAN_MOTION_DOT":2.75e-6,"MEAN_MOTION_DDOT":0}]
