ONEWEB-0058             
1 45161U 20008AG  26056.95779103 -.00000480  00000+0 -14121-2 0  9991
2 45161  87.8758  58.4335 0001911  96.5916 263.5429 13.10374137293856
ONEWEB-0059             
1 45162U 20008AH  26057.25975767 -.00000582  00000+0 -17024-2 0  9998
2 45162  87.8758  58.3735 0001765  91.9803 268.1527 13.10373794293792
ONEWEB-0062             
1 45163U 20008AJ  26057.05643886  .00000441  00000+0  12274-2 0  9995
2 45163  87.8766  58.3953 0002049 100.7563 259.3795 13.10374329293639
ONEWEB-0065             
1 45164U 20008AK  26057.01064022 -.00000136  00000+0 -42695-3 0  9995
2 45164  87.8750  58.4145 0001891  77.9031 282.2308 13.10369932293321
ONEWEB-0066             
1 45424U 20020A   26056.90599830 -.00000464  00000+0 -13443-2 0  9997
2 45424  87.8845  43.1965 0001705  87.9964 272.1360 13.11415516288091
ONEWEB-0067             
1 45425U 20020B   26056.94345611  .00000548  00000+0  15106-2 0  9997
2 45425  87.8855  43.0973 0001741  81.1124 279.0201 13.11416327288153
ONEWEB-0080             
1 45426U 20020C   26057.18152237  .00000511  00000+0  14069-2 0  9992
2 45426  87.8842  43.1395 0001969  95.1968 264.9384 13.11418341288155
ONEWEB-0090             
1 45427U 20020D   26056.51447809 -.00000309  00000+0 -90713-3 0  9999
2 45427  87.8841  43.2734 0001865  88.4348 271.6994 13.11414112288036
ONEWEB-0061             
1 45428U 20020E   26056.92792092  .00000080  00000+0  19036-3 0  9995
2 45428  87.8850  43.1765 0001823  86.8295 273.3041 13.11418786288041
ONEWEB-0081             
1 45429U 20020F   26056.90937894 -.00000532  00000+0 -15371-2 0  9996
2 45429  87.8847  43.1957 0001640  83.3679 276.7636 13.11415274288154
ONEWEB-0069             
1 45430U 20020G   26056.97467486 -.00000365  00000+0 -10653-2 0  9992
2 45430  87.8846  43.1777 0001754  84.6139 275.5189 13.11414837288093
ONEWEB-0031             
1 45431U 20020H   26056.94670734  .00000549  00000+0  15122-2 0  9990
2 45431  87.8839  43.2022 0002045  88.0863 272.0499 13.11416545288078
ONEWEB-0027             
1 45432U 20020J   26057.28719083  .00000004  00000+0 -23855-4 0  9991
2 45432  87.9139  27.8654 0002253  86.5856 273.5533 13.17645978291752
ONEWEB-0064             
1 45433U 20020K   26057.25019778  .00000582  00000+0  16075-2 0  9997
2 45433  87.8839  43.1318 0001999  87.6823 272.4534 13.11416094288146
ONEWEB-0018             
1 45434U 20020L   26056.67202564 -.00000395  00000+0 -11495-2 0  9995
2 45434  87.8845  43.2430 0001723  89.8960 270.2365 13.11415366288016
ONEWEB-0083             
1 45435U 20020M   26056.96788971 -.00000120  00000+0 -37525-3 0  9998
2 45435  87.8843  43.1717 0001856  88.2818 271.8522 13.11413044288095
ONEWEB-0095             
1 45436U 20020N   26056.95871214  .00000275  00000+0  73923-3 0  9992
2 45436  87.8843  43.1824 0002485  73.1929 286.9472 13.11415274288098
